[{"OBJECT_NAME":"STARLINK-34452","OBJECT_ID":"2025-129P","EPOCH":"2026-03-09T10:46:06.539520","MEAN_MOTION":14.98320945,"ECCENTRICITY":0.00035127,"INCLINATION":70.0016,"RA_OF_ASC_NODE":74.966,"ARG_OF_PERICENTER":268.408,"MEAN_ANOMALY":91.6677,"EPHEMERIS_TYPE":0,"CLASSIFICATION_TYPE":"U","NORAD_CAT_ID":64425,"ELEMENT_SET_NO":999,"REV_AT_EPOCH":4125,"BSTAR":-0.00082466371,"MEAN_MOTION_DOT":-9.917e-5,"MEAN_MOTION_DDOT":0},{"OBJECT_NAME":"DELTA 2 R\/B(1)","OBJECT_ID":"1992-009B","EPOCH":"2026-03-09T12:17:31.364448","MEAN_MOTION":14.93413608,"ECCENTRICITY":0.00380129,"INCLINATION":19.9949,"RA_OF_ASC_NODE":116.2431,"ARG_OF_PERICENTER":331.0025,"MEAN_ANOMALY":28.8287,"EPHEMERIS_TYPE":0,"CLASSIFICATION_TYPE":"U","NORAD_CAT_ID":21891,"ELEMENT_SET_NO":999,"REV_AT_EPOCH":81986,"BSTAR":0.00029183889,"MEAN_MOTION_DOT":3.628e-5,"MEAN_MOTION_DDOT":0}]
